{
  "type": "FeatureCollection",
  "features": [
    {
      "type": "Feature",
      "properties": {
        "norad_id": 34728,
        "name": "COSMOS 2251 DEB",
        "group": "cosmos-2251-debris",
        "lat": -73.46879721196898,
        "lon": 148.390305020013,
        "alt_km": 671.3535183370859,
        "timestamp": "2025-12-27T08:36:18.779671+00:00",
        "meta_object_name": "COSMOS 2251 DEB",
        "meta_object_id": "1993-036YW",
        "meta_epoch": "2025-12-26T18:18:10.094976",
        "meta_mean_motion": 14.70962251,
        "meta_eccentricity": 0.00417457,
        "meta_inclination": 74.0156,
        "meta_ra_of_asc_node": 224.5108,
        "meta_arg_of_pericenter": 18.4003,
        "meta_mean_anomaly": 341.8666,
        "meta_ephemeris_type": 0,
        "meta_classification_type": "U",
        "meta_norad_cat_id": 34728,
        "meta_element_set_no": 999,
        "meta_rev_at_epoch": 89006,
        "meta_bstar": 0.00065234941,
        "meta_mean_motion_dot": 4.022e-05,
        "meta_mean_motion_ddot": 0,
        "tle_line1": "1 34728U 93036YW  25360.76261684  .00004022  00000+0  65235-3 0  9992",
        "tle_line2": "2 34728  74.0156 224.5108 0041745  18.4003 341.8666 14.70962251890062"
      },
      "geometry": {
        "type": "Point",
        "coordinates": [
          148.390305020013,
          -73.46879721196898
        ]
      }
    },
    {
      "type": "Feature",
      "properties": {
        "norad_id": 34729,
        "name": "COSMOS 2251 DEB",
        "group": "cosmos-2251-debris",
        "lat": -23.334582743231962,
        "lon": 156.56662406173996,
        "alt_km": 628.9104042143817,
        "timestamp": "2025-12-27T08:36:18.779681+00:00",
        "meta_object_name": "COSMOS 2251 DEB",
        "meta_object_id": "1993-036YX",
        "meta_epoch": "2025-12-27T04:31:24.449088",
        "meta_mean_motion": 14.83226319,
        "meta_eccentricity": 0.0012138,
        "meta_inclination": 74.0183,
        "meta_ra_of_asc_node": 329.8018,
        "meta_arg_of_pericenter": 81.4706,
        "meta_mean_anomaly": 294.8875,
        "meta_ephemeris_type": 0,
        "meta_classification_type": "U",
        "meta_norad_cat_id": 34729,
        "meta_element_set_no": 999,
        "meta_rev_at_epoch": 88672,
        "meta_bstar": 0.0024709,
        "meta_mean_motion_dot": 0.00020246,
        "meta_mean_motion_ddot": 0,
        "tle_line1": "1 34729U 93036YX  25361.18847742  .00020246  00000+0  24709-2 0  9991",
        "tle_line2": "2 34729  74.0183 329.8018 0012138  81.4706 294.8875 14.83226319886725"
      },
      "geometry": {
        "type": "Point",
        "coordinates": [
          156.56662406173996,
          -23.334582743231962
        ]
      }
    },
    {
      "type": "Feature",
      "properties": {
        "norad_id": 34732,
        "name": "COSMOS 2251 DEB",
        "group": "cosmos-2251-debris",
        "lat": -6.174443913339025,
        "lon": 64.09592247859294,
        "alt_km": 759.454227233452,
        "timestamp": "2025-12-27T08:36:18.779691+00:00",
        "meta_object_name": "COSMOS 2251 DEB",
        "meta_object_id": "1993-036ZA",
        "meta_epoch": "2025-12-27T03:47:09.340800",
        "meta_mean_motion": 14.47316907,
        "meta_eccentricity": 0.0040012,
        "meta_inclination": 74.0455,
        "meta_ra_of_asc_node": 66.2445,
        "meta_arg_of_pericenter": 214.4956,
        "meta_mean_anomaly": 173.0696,
        "meta_ephemeris_type": 0,
        "meta_classification_type": "U",
        "meta_norad_cat_id": 34732,
        "meta_element_set_no": 999,
        "meta_rev_at_epoch": 88352,
        "meta_bstar": 0.00016138,
        "meta_mean_motion_dot": 5.69e-06,
        "meta_mean_motion_ddot": 0,
        "tle_line1": "1 34732U 93036ZA  25361.15774700  .00000569  00000+0  16138-3 0  9999",
        "tle_line2": "2 34732  74.0455  66.2445 0040012 214.4956 173.0696 14.47316907883521"
      },
      "geometry": {
        "type": "Point",
        "coordinates": [
          64.09592247859294,
          -6.174443913339025
        ]
      }
    },
    {
      "type": "Feature",
      "properties": {
        "norad_id": 34736,
        "name": "COSMOS 2251 DEB",
        "group": "cosmos-2251-debris",
        "lat": -17.007259253242584,
        "lon": -1.162214415868334,
        "alt_km": 378.1848516704904,
        "timestamp": "2025-12-27T08:36:18.779701+00:00",
        "meta_object_name": "COSMOS 2251 DEB",
        "meta_object_id": "1993-036ZE",
        "meta_epoch": "2025-12-27T02:32:05.045280",
        "meta_mean_motion": 15.62485797,
        "meta_eccentricity": 0.0008536,
        "meta_inclination": 73.9966,
        "meta_ra_of_asc_node": 4.4409,
        "meta_arg_of_pericenter": 336.3393,
        "meta_mean_anomaly": 23.7433,
        "meta_ephemeris_type": 0,
        "meta_classification_type": "U",
        "meta_norad_cat_id": 34736,
        "meta_element_set_no": 999,
        "meta_rev_at_epoch": 88671,
        "meta_bstar": 0.0092524,
        "meta_mean_motion_dot": 0.00905853,
        "meta_mean_motion_ddot": 0,
        "tle_line1": "1 34736U 93036ZE  25361.10561395  .00905853  00000+0  92524-2 0  9994",
        "tle_line2": "2 34736  73.9966   4.4409 0008536 336.3393  23.7433 15.62485797886714"
      },
      "geometry": {
        "type": "Point",
        "coordinates": [
          -1.162214415868334,
          -17.007259253242584
        ]
      }
    },
    {
      "type": "Feature",
      "properties": {
        "norad_id": 34738,
        "name": "COSMOS 2251 DEB",
        "group": "cosmos-2251-debris",
        "lat": -24.835951369139025,
        "lon": 108.32016731963587,
        "alt_km": 733.743134634301,
        "timestamp": "2025-12-27T08:36:18.779711+00:00",
        "meta_object_name": "COSMOS 2251 DEB",
        "meta_object_id": "1993-036ZG",
        "meta_epoch": "2025-12-27T02:20:32.698752",
        "meta_mean_motion": 14.46336983,
        "meta_eccentricity": 0.0047598,
        "meta_inclination": 74.0159,
        "meta_ra_of_asc_node": 116.4311,
        "meta_arg_of_pericenter": 260.0922,
        "meta_mean_anomaly": 155.4152,
        "meta_ephemeris_type": 0,
        "meta_classification_type": "U",
        "meta_norad_cat_id": 34738,
        "meta_element_set_no": 999,
        "meta_rev_at_epoch": 88066,
        "meta_bstar": 0.00040901,
        "meta_mean_motion_dot": 1.46e-05,
        "meta_mean_motion_ddot": 0,
        "tle_line1": "1 34738U 93036ZG  25361.09760068  .00001460  00000+0  40901-3 0  9996",
        "tle_line2": "2 34738  74.0159 116.4311 0047598 260.0922 155.4152 14.46336983880662"
      },
      "geometry": {
        "type": "Point",
        "coordinates": [
          108.32016731963587,
          -24.835951369139025
        ]
      }
    },
    {
      "type": "Feature",
      "properties": {
        "norad_id": 34750,
        "name": "COSMOS 2251 DEB",
        "group": "cosmos-2251-debris",
        "lat": -23.32659994299232,
        "lon": 0.974265723432302,
        "alt_km": 689.8023474261217,
        "timestamp": "2025-12-27T08:36:18.779721+00:00",
        "meta_object_name": "COSMOS 2251 DEB",
        "meta_object_id": "1993-036ZU",
        "meta_epoch": "2025-12-26T22:22:40.831392",
        "meta_mean_motion": 14.61470505,
        "meta_eccentricity": 0.0038217,
        "meta_inclination": 74.1071,
        "meta_ra_of_asc_node": 174.7283,
        "meta_arg_of_pericenter": 122.8481,
        "meta_mean_anomaly": 359.8296,
        "meta_ephemeris_type": 0,
        "meta_classification_type": "U",
        "meta_norad_cat_id": 34750,
        "meta_element_set_no": 999,
        "meta_rev_at_epoch": 88438,
        "meta_bstar": 0.0014743,
        "meta_mean_motion_dot": 7.361e-05,
        "meta_mean_motion_ddot": 0,
        "tle_line1": "1 34750U 93036ZU  25360.93241703  .00007361  00000+0  14743-2 0  9992",
        "tle_line2": "2 34750  74.1071 174.7283 0038217 122.8481 359.8296 14.61470505884386"
      },
      "geometry": {
        "type": "Point",
        "coordinates": [
          0.974265723432302,
          -23.32659994299232
        ]
      }
    },
    {
      "type": "Feature",
      "properties": {
        "norad_id": 34752,
        "name": "COSMOS 2251 DEB",
        "group": "cosmos-2251-debris",
        "lat": -38.32323546766478,
        "lon": 163.94229614821577,
        "alt_km": 591.2123567282852,
        "timestamp": "2025-12-27T08:36:18.779731+00:00",
        "meta_object_name": "COSMOS 2251 DEB",
        "meta_object_id": "1993-036ZW",
        "meta_epoch": "2025-12-27T04:25:51.654432",
        "meta_mean_motion": 15.00272869,
        "meta_eccentricity": 0.0047574,
        "meta_inclination": 74.0132,
        "meta_ra_of_asc_node": 331.199,
        "meta_arg_of_pericenter": 95.0099,
        "meta_mean_anomaly": 265.6521,
        "meta_ephemeris_type": 0,
        "meta_classification_type": "U",
        "meta_norad_cat_id": 34752,
        "meta_element_set_no": 999,
        "meta_rev_at_epoch": 90066,
        "meta_bstar": 0.0012231,
        "meta_mean_motion_dot": 0.00015687,
        "meta_mean_motion_ddot": 0,
        "tle_line1": "1 34752U 93036ZW  25361.18462563  .00015687  00000+0  12231-2 0  9991",
        "tle_line2": "2 34752  74.0132 331.1990 0047574  95.0099 265.6521 15.00272869900663"
      },
      "geometry": {
        "type": "Point",
        "coordinates": [
          163.94229614821577,
          -38.32323546766478
        ]
      }
    }
  ]
}